YAM-10                  
1 64580U 25135BE  26194.83992624  .00000793  00000+0  83922-4 0  9990
2 64580  97.7752 308.3257 0001684 254.4360 105.6673 14.91898401 57839
YAM-11                  
1 68991U 26100M   26195.17472316  .00000744  00000+0  81702-4 0  9992
2 68991  97.7336  91.9695 0009730   4.8274 355.3036 14.90568569 10710
YAM-16                  
1 68992U 26100N   26195.18820632  .00000937  00000+0  99104-4 0  9991
2 68992  97.7339  92.1091 0004781  64.5838 295.5875 14.91513405 10724
YAM-13                  
1 68993U 26100P   26194.72717336  .00000858  00000+0  93717-4 0  9993
2 68993  97.7339  91.6366 0009738   3.5344 356.5941 14.90408161 10651
YAM-15                  
1 68997U 26100T   26195.18380213  .00000830  00000+0  90304-4 0  9997
2 68997  97.7331  92.1081 0009516  15.3530 344.7975 14.90651597 10726
YAM-12                  
1 69003U 26100Z   26194.95641421  .00001973  00000+0  20797-3 0  9998
2 69003  97.7305  91.7744 0009385 355.8900   4.2240 14.90423460 10677
YAM-14                  
1 69008U 26100AE  26194.88211380  .00000739  00000+0  81556-4 0  9992
2 69008  97.7318  91.7242 0006186  40.4967 319.6710 14.90345657 10660
