{"fetched_at":"2026-07-14T17:41:17.820Z","source":"https://celestrak.org/NORAD/elements/gp.php?NAME=YAM&FORMAT=JSON","constellation":"earthdaily-constellation","records":[{"OBJECT_NAME":"YAM-10","OBJECT_ID":"2025-135BE","EPOCH":"2026-07-13T20:09:29.627136","CLASSIFICATION_TYPE":"U","MEAN_MOTION":14.91898401,"ECCENTRICITY":0.0001684,"INCLINATION":97.7752,"RA_OF_ASC_NODE":308.3257,"ARG_OF_PERICENTER":254.436,"MEAN_ANOMALY":105.6673,"EPHEMERIS_TYPE":0,"NORAD_CAT_ID":64580,"ELEMENT_SET_NO":999,"REV_AT_EPOCH":5783,"BSTAR":0.000083922,"MEAN_MOTION_DOT":0.00000793,"MEAN_MOTION_DDOT":0},{"OBJECT_NAME":"YAM-11","OBJECT_ID":"2026-100M","EPOCH":"2026-07-14T04:11:36.081024","CLASSIFICATION_TYPE":"U","MEAN_MOTION":14.90568569,"ECCENTRICITY":0.000973,"INCLINATION":97.7336,"RA_OF_ASC_NODE":91.9695,"ARG_OF_PERICENTER":4.8274,"MEAN_ANOMALY":355.3036,"EPHEMERIS_TYPE":0,"NORAD_CAT_ID":68991,"ELEMENT_SET_NO":999,"REV_AT_EPOCH":1071,"BSTAR":0.000081702,"MEAN_MOTION_DOT":0.00000744,"MEAN_MOTION_DDOT":0},{"OBJECT_NAME":"YAM-16","OBJECT_ID":"2026-100N","EPOCH":"2026-07-14T04:31:01.026048","CLASSIFICATION_TYPE":"U","MEAN_MOTION":14.91513405,"ECCENTRICITY":0.0004781,"INCLINATION":97.7339,"RA_OF_ASC_NODE":92.1091,"ARG_OF_PERICENTER":64.5838,"MEAN_ANOMALY":295.5875,"EPHEMERIS_TYPE":0,"NORAD_CAT_ID":68992,"ELEMENT_SET_NO":999,"REV_AT_EPOCH":1072,"BSTAR":0.000099104,"MEAN_MOTION_DOT":0.00000937,"MEAN_MOTION_DDOT":0},{"OBJECT_NAME":"YAM-13","OBJECT_ID":"2026-100P","EPOCH":"2026-07-13T17:27:07.778304","CLASSIFICATION_TYPE":"U","MEAN_MOTION":14.90408161,"ECCENTRICITY":0.0009738,"INCLINATION":97.7339,"RA_OF_ASC_NODE":91.6366,"ARG_OF_PERICENTER":3.5344,"MEAN_ANOMALY":356.5941,"EPHEMERIS_TYPE":0,"NORAD_CAT_ID":68993,"ELEMENT_SET_NO":999,"REV_AT_EPOCH":1065,"BSTAR":0.000093717,"MEAN_MOTION_DOT":0.00000858,"MEAN_MOTION_DDOT":0},{"OBJECT_NAME":"YAM-15","OBJECT_ID":"2026-100T","EPOCH":"2026-07-14T04:24:40.504032","CLASSIFICATION_TYPE":"U","MEAN_MOTION":14.90651597,"ECCENTRICITY":0.0009516,"INCLINATION":97.7331,"RA_OF_ASC_NODE":92.1081,"ARG_OF_PERICENTER":15.353,"MEAN_ANOMALY":344.7975,"EPHEMERIS_TYPE":0,"NORAD_CAT_ID":68997,"ELEMENT_SET_NO":999,"REV_AT_EPOCH":1072,"BSTAR":0.000090304,"MEAN_MOTION_DOT":0.0000083,"MEAN_MOTION_DDOT":0},{"OBJECT_NAME":"YAM-12","OBJECT_ID":"2026-100Z","EPOCH":"2026-07-13T22:57:14.187744","CLASSIFICATION_TYPE":"U","MEAN_MOTION":14.9042346,"ECCENTRICITY":0.0009385,"INCLINATION":97.7305,"RA_OF_ASC_NODE":91.7744,"ARG_OF_PERICENTER":355.89,"MEAN_ANOMALY":4.224,"EPHEMERIS_TYPE":0,"NORAD_CAT_ID":69003,"ELEMENT_SET_NO":999,"REV_AT_EPOCH":1067,"BSTAR":0.00020797,"MEAN_MOTION_DOT":0.00001973,"MEAN_MOTION_DDOT":0},{"OBJECT_NAME":"YAM-14","OBJECT_ID":"2026-100AE","EPOCH":"2026-07-13T21:10:14.632320","CLASSIFICATION_TYPE":"U","MEAN_MOTION":14.90345657,"ECCENTRICITY":0.0006186,"INCLINATION":97.7318,"RA_OF_ASC_NODE":91.7242,"ARG_OF_PERICENTER":40.4967,"MEAN_ANOMALY":319.671,"EPHEMERIS_TYPE":0,"NORAD_CAT_ID":69008,"ELEMENT_SET_NO":999,"REV_AT_EPOCH":1066,"BSTAR":0.000081556,"MEAN_MOTION_DOT":0.00000739,"MEAN_MOTION_DDOT":0}]}
